{"type": "FeatureCollection", "features": [ {"type": "Feature", "properties": {"norad_id": 54234, "name": "NOAA 21 (JPSS-2)", "group": "weather", "lat": -12.753786042924839, "lon": -80.31358585716615, "alt_km": 830.5296937088988, "timestamp": "2025-12-07T07:31:35.947129+00:00", "meta": {"OBJECT_NAME": "NOAA 21 (JPSS-2)", "OBJECT_ID": "2022-150A", "EPOCH": "2025-12-06T21:26:14.335872", "MEAN_MOTION": 14.19521696, "ECCENTRICITY": 0.0002423, "INCLINATION": 98.7454, "RA_OF_ASC_NODE": 277.2747, "ARG_OF_PERICENTER": 49.069, "MEAN_ANOMALY": 311.0696, "EPHEMERIS_TYPE": 0, "CLASSIFICATION_TYPE": "U", "NORAD_CAT_ID": 54234, "ELEMENT_SET_NO": 999, "REV_AT_EPOCH": 15926, "BSTAR": 0.00011496439, "MEAN_MOTION_DOT": 1.98e-06, "MEAN_MOTION_DDOT": 0}, "tle": {"line1": "1 54234U 22150A   25340.89322148  .00000198  00000+0  11496-3 0  9990", "line2": "2 54234  98.7454 277.2747 0002423  49.0690 311.0696 14.19521696159265"}}, "geometry": {"type": "Point", "coordinates": [-80.31358585716615, -12.753786042924839]}}, {"type": "Feature", "properties": {"norad_id": 54743, "name": "METEOSAT-12 (MTG-I1)", "group": "weather", "lat": 0.255476488075138, "lon": -171.03059364346407, "alt_km": 35782.3752823179, "timestamp": "2025-12-07T07:31:35.947143+00:00", "meta": {"OBJECT_NAME": "METEOSAT-12 (MTG-I1)", "OBJECT_ID": "2022-170C", "EPOCH": "2025-12-06T22:13:29.997696", "MEAN_MOTION": 1.0027445, "ECCENTRICITY": 0.00015388, "INCLINATION": 0.7232, "RA_OF_ASC_NODE": 30.6692, "ARG_OF_PERICENTER": 221.712, "MEAN_ANOMALY": 156.6995, "EPHEMERIS_TYPE": 0, "CLASSIFICATION_TYPE": "U", "NORAD_CAT_ID": 54743, "ELEMENT_SET_NO": 999, "REV_AT_EPOCH": 1105, "BSTAR": 0, "MEAN_MOTION_DOT": -1e-08, "MEAN_MOTION_DDOT": 0}, "tle": {"line1": "1 54743U 22170C   25340.92604164 -.00000001  00000+0  00000+0 0  9991", "line2": "2 54743   0.7232  30.6692 0001538 221.7120 156.6995  1.00274450 11058"}}, "geometry": {"type": "Point", "coordinates": [-171.03059364346407, 0.255476488075138]}}, {"type": "Feature", "properties": {"norad_id": 55973, "name": "TIANMU-1 03", "group": "weather", "lat": 66.6026923284766, "lon": 126.0604758743072, "alt_km": 434.5769927546662, "timestamp": "2025-12-07T07:31:35.947154+00:00", "meta": {"OBJECT_NAME": "TIANMU-1 03", "OBJECT_ID": "2023-039A", "EPOCH": "2025-12-06T21:52:52.041216", "MEAN_MOTION": 15.40670719, "ECCENTRICITY": 0.00045039, "INCLINATION": 97.5109, "RA_OF_ASC_NODE": 143.4018, "ARG_OF_PERICENTER": 78.2345, "MEAN_ANOMALY": 281.9406, "EPHEMERIS_TYPE": 0, "CLASSIFICATION_TYPE": "U", "NORAD_CAT_ID": 55973, "ELEMENT_SET_NO": 999, "REV_AT_EPOCH": 15116, "BSTAR": 0.00051803904, "MEAN_MOTION_DOT": 0.00021081, "MEAN_MOTION_DDOT": 0}, "tle": {"line1": "1 55973U 23039A   25340.91171344  .00021081  00000+0  51804-3 0  9992", "line2": "2 55973  97.5109 143.4018 0004503  78.2345 281.9406 15.40670719151168"}}, "geometry": {"type": "Point", "coordinates": [126.0604758743072, 66.6026923284766]}}, {"type": "Feature", "properties": {"norad_id": 55974, "name": "TIANMU-1 04", "group": "weather", "lat": 4.516208522224367, "lon": -36.395520855032814, "alt_km": 446.4042618368394, "timestamp": "2025-12-07T07:31:35.947165+00:00", "meta": {"OBJECT_NAME": "TIANMU-1 04", "OBJECT_ID": "2023-039B", "EPOCH": "2025-12-06T21:25:05.317824", "MEAN_MOTION": 15.41002082, "ECCENTRICITY": 0.00051894, "INCLINATION": 97.5041, "RA_OF_ASC_NODE": 142.5754, "ARG_OF_PERICENTER": 73.7477, "MEAN_ANOMALY": 286.4339, "EPHEMERIS_TYPE": 0, "CLASSIFICATION_TYPE": "U", "NORAD_CAT_ID": 55974, "ELEMENT_SET_NO": 999, "REV_AT_EPOCH": 15116, "BSTAR": 0.00053022925, "MEAN_MOTION_DOT": 0.00021821, "MEAN_MOTION_DDOT": 0}, "tle": {"line1": "1 55974U 23039B   25340.89242266  .00021821  00000+0  53023-3 0  9999", "line2": "2 55974  97.5041 142.5754 0005189  73.7477 286.4339 15.41002082151166"}}, "geometry": {"type": "Point", "coordinates": [-36.395520855032814, 4.516208522224367]}}, {"type": "Feature", "properties": {"norad_id": 55975, "name": "TIANMU-1 05", "group": "weather", "lat": -34.32417485312738, "lon": -41.66683893148839, "alt_km": 452.046671270411, "timestamp": "2025-12-07T07:31:35.947175+00:00", "meta": {"OBJECT_NAME": "TIANMU-1 05", "OBJECT_ID": "2023-039C", "EPOCH": "2025-12-06T21:14:44.550240", "MEAN_MOTION": 15.40627096, "ECCENTRICITY": 0.00043668, "INCLINATION": 97.5087, "RA_OF_ASC_NODE": 143.0602, "ARG_OF_PERICENTER": 95.1079, "MEAN_ANOMALY": 265.0665, "EPHEMERIS_TYPE": 0, "CLASSIFICATION_TYPE": "U", "NORAD_CAT_ID": 55975, "ELEMENT_SET_NO": 999, "REV_AT_EPOCH": 15114, "BSTAR": 0.00052865167, "MEAN_MOTION_DOT": 0.00021484, "MEAN_MOTION_DDOT": 0}, "tle": {"line1": "1 55975U 23039C   25340.88523785  .00021484  00000+0  52865-3 0  9995", "line2": "2 55975  97.5087 143.0602 0004366  95.1079 265.0665 15.40627096151147"}}, "geometry": {"type": "Point", "coordinates": [-41.66683893148839, -34.32417485312738]}}, {"type": "Feature", "properties": {"norad_id": 55976, "name": "TIANMU-1 06", "group": "weather", "lat": 17.49426118673474, "lon": -33.656336692495515, "alt_km": 442.60787506993347, "timestamp": "2025-12-07T07:31:35.947186+00:00", "meta": {"OBJECT_NAME": "TIANMU-1 06", "OBJECT_ID": "2023-039D", "EPOCH": "2025-12-06T21:28:30.349344", "MEAN_MOTION": 15.41054475, "ECCENTRICITY": 0.00046819, "INCLINATION": 97.5098, "RA_OF_ASC_NODE": 143.5302, "ARG_OF_PERICENTER": 90.2713, "MEAN_ANOMALY": 269.907, "EPHEMERIS_TYPE": 0, "CLASSIFICATION_TYPE": "U", "NORAD_CAT_ID": 55976, "ELEMENT_SET_NO": 999, "REV_AT_EPOCH": 15116, "BSTAR": 0.00052598356, "MEAN_MOTION_DOT": 0.00021681, "MEAN_MOTION_DDOT": 0}, "tle": {"line1": "1 55976U 23039D   25340.89479571  .00021681  00000+0  52598-3 0  9992", "line2": "2 55976  97.5098 143.5302 0004681  90.2713 269.9070 15.41054475151164"}}, "geometry": {"type": "Point", "coordinates": [-33.656336692495515, 17.49426118673474]}}, {"type": "Feature", "properties": {"norad_id": 56232, "name": "FENGYUN 3G", "group": "weather", "lat": -29.560827668417662, "lon": -133.00198179780188, "alt_km": 416.90749203627, "timestamp": "2025-12-07T07:31:35.947199+00:00", "meta": {"OBJECT_NAME": "FENGYUN 3G", "OBJECT_ID": "2023-055A", "EPOCH": "2025-12-06T22:26:04.669728", "MEAN_MOTION": 15.53134913, "ECCENTRICITY": 0.00092333, "INCLINATION": 49.9942, "RA_OF_ASC_NODE": 257.4002, "ARG_OF_PERICENTER": 120.7601, "MEAN_ANOMALY": 239.4277, "EPHEMERIS_TYPE": 0, "CLASSIFICATION_TYPE": "U", "NORAD_CAT_ID": 56232, "ELEMENT_SET_NO": 999, "REV_AT_EPOCH": 15012, "BSTAR": 0.00069922918, "MEAN_MOTION_DOT": 0.00044561, "MEAN_MOTION_DDOT": 0}, "tle": {"line1": "1 56232U 23055A   25340.93477627  .00044561  00000+0  69923-3 0  9993", "line2": "2 56232  49.9942 257.4002 0009233 120.7601 239.4277 15.53134913150129"}}, "geometry": {"type": "Point", "coordinates": [-133.00198179780188, -29.560827668417662]}}, {"type": "Feature", "properties": {"norad_id": 57166, "name": "METEOR-M2 3", "group": "weather", "lat": 13.678054367607059, "lon": -142.9321108499858, "alt_km": 815.1632363374056, "timestamp": "2025-12-07T07:31:35.947210+00:00", "meta": {"OBJECT_NAME": "METEOR-M2 3", "OBJECT_ID": "2023-091A", "EPOCH": "2025-12-06T22:19:04.891008", "MEAN_MOTION": 14.24025063, "ECCENTRICITY": 0.00042262, "INCLINATION": 98.6387, "RA_OF_ASC_NODE": 34.5706, "ARG_OF_PERICENTER": 24.717, "MEAN_ANOMALY": 335.421, "EPHEMERIS_TYPE": 0, "CLASSIFICATION_TYPE": "U", "NORAD_CAT_ID": 57166, "ELEMENT_SET_NO": 999, "REV_AT_EPOCH": 12715, "BSTAR": 5.1777164e-05, "MEAN_MOTION_DOT": 7.5e-07, "MEAN_MOTION_DDOT": 0}, "tle": {"line1": "1 57166U 23091A   25340.92991772  .00000075  00000+0  51777-4 0  9992", "line2": "2 57166  98.6387  34.5706 0004226  24.7170 335.4210 14.24025063127159"}}, "geometry": {"type": "Point", "coordinates": [-142.9321108499858, 13.678054367607059]}}, {"type": "Feature", "properties": {"norad_id": 57399, "name": "TIANMU-1 07", "group": "weather", "lat": 53.9633654627523, "lon": -138.5845333351308, "alt_km": 473.5757803427814, "timestamp": "2025-12-07T07:31:35.947220+00:00", "meta": {"OBJECT_NAME": "TIANMU-1 07", "OBJECT_ID": "2023-101A", "EPOCH": "2025-12-06T21:32:59.929440", "MEAN_MOTION": 15.27945246, "ECCENTRICITY": 0.00056048, "INCLINATION": 97.288, "RA_OF_ASC_NODE": 30.8772, "ARG_OF_PERICENTER": 96.1764, "MEAN_ANOMALY": 264.0114, "EPHEMERIS_TYPE": 0, "CLASSIFICATION_TYPE": "U", "NORAD_CAT_ID": 57399, "ELEMENT_SET_NO": 999, "REV_AT_EPOCH": 13226, "BSTAR": 0.00043098546, "MEAN_MOTION_DOT": 0.00011692, "MEAN_MOTION_DDOT": 0}, "tle": {"line1": "1 57399U 23101A   25340.89791585  .00011692  00000+0  43099-3 0  9992", "line2": "2 57399  97.2880  30.8772 0005604  96.1764 264.0114 15.27945246132261"}}, "geometry": {"type": "Point", "coordinates": [-138.5845333351308, 53.9633654627523]}}, {"type": "Feature", "properties": {"norad_id": 57400, "name": "TIANMU-1 08", "group": "weather", "lat": -52.174694762192935, "lon": 40.56920410124022, "alt_km": 493.5392925219894, "timestamp": "2025-12-07T07:31:35.947231+00:00", "meta": {"OBJECT_NAME": "TIANMU-1 08", "OBJECT_ID": "2023-101B", "EPOCH": "2025-12-06T20:45:18.484992", "MEAN_MOTION": 15.27929578, "ECCENTRICITY": 0.00075615, "INCLINATION": 97.2869, "RA_OF_ASC_NODE": 30.6439, "ARG_OF_PERICENTER": 100.181, "MEAN_ANOMALY": 260.0283, "EPHEMERIS_TYPE": 0, "CLASSIFICATION_TYPE": "U", "NORAD_CAT_ID": 57400, "ELEMENT_SET_NO": 999, "REV_AT_EPOCH": 13225, "BSTAR": 0.00040486226, "MEAN_MOTION_DOT": 0.00010977, "MEAN_MOTION_DDOT": 0}, "tle": {"line1": "1 57400U 23101B   25340.86479728  .00010977  00000+0  40486-3 0  9996", "line2": "2 57400  97.2869  30.6439 0007561 100.1810 260.0283 15.27929578132253"}}, "geometry": {"type": "Point", "coordinates": [40.56920410124022, -52.174694762192935]}}]}